COMMENT,ORIGINATOR,NORAD_CAT_ID,OBJECT_NAME,OBJECT_TYPE,CLASSIFICATION_TYPE,INTLDES,EPOCH,EPOCH_MICROSECONDS,MEAN_MOTION,ECCENTRICITY,INCLINATION,RA_OF_ASC_NODE,ARG_OF_PERICENTER,MEAN_ANOMALY,EPHEMERIS_TYPE,ELEMENT_SET_NO,REV_AT_EPOCH,BSTAR,MEAN_MOTION_DOT,MEAN_MOTION_DDOT,FILE,TLE_LINE0,TLE_LINE1,TLE_LINE2,OBJECT_ID,OBJECT_NUMBER,SEMIMAJOR_AXIS,PERIOD,APOGEE,PERIGEE,DECAYED
GENERATED VIA SPACETRACK.ORG API,18 SPCS,58292,UMBRA-08,PAYLOAD,U,23174AN,2024-05-26 03:45:32,482080,15.12732287,0.000179,97.4557,220.6656,168.623,191.5042,0,999,3027,0.0015267,0.00026765,0,4327809,0 UMBRA-08,1 58292U 23174AN  24147.15662595  .00026765  00000-0  15267-2 0  9999,2 58292  97.4557 220.6656 0001790 168.6230 191.5042 15.12732287 30277,2023-174AN,58292,6906.009,95.192,529.110,526.638,1
GENERATED VIA SPACETRACK.ORG API,18 SPCS,58292,UMBRA-08,PAYLOAD,U,23174AN,2024-05-26 05:20:47,617440,15.12734917,0.0001745,97.4558,220.7303,167.8846,192.2427,0,999,3028,0.0014336,0.00025125,0,4328092,0 UMBRA-08,1 58292U 23174AN  24147.22277335  .00025125  00000-0  14336-2 0  9996,2 58292  97.4558 220.7303 0001745 167.8846 192.2427 15.12734917 30280,2023-174AN,58292,6906.001,95.192,529.071,526.661,1
GENERATED VIA SPACETRACK.ORG API,18 SPCS,58292,UMBRA-08,PAYLOAD,U,23174AN,2024-05-26 22:48:33,356448,15.12769956,0.0001768,97.4557,221.4413,165.011,195.1174,0,999,3039,0.0013967,0.00024499,0,4328412,0 UMBRA-08,1 58292U 23174AN  24147.95038607  .00024499  00000-0  13967-2 0  9995,2 58292  97.4557 221.4413 0001768 165.0110 195.1174 15.12769956 30392,2023-174AN,58292,6905.894,95.190,528.980,526.538,1
GENERATED VIA SPACETRACK.ORG API,18 SPCS,58292,UMBRA-08,PAYLOAD,U,23174AN,2024-05-27 05:09:33,230016,15.12783059,0.0001763,97.4558,221.7,165.7933,194.3348,0,999,3043,0.0012939,0.00022694,0,4328670,0 UMBRA-08,1 58292U 23174AN  24148.21496794  .00022694  00000-0  12939-2 0  9993,2 58292  97.4558 221.7000 0001763 165.7933 194.3348 15.12783059 30432,2023-174AN,58292,6905.854,95.189,528.937,526.502,1
GENERATED VIA SPACETRACK.ORG API,18 SPCS,58292,UMBRA-08,PAYLOAD,U,23174AN,2024-05-27 11:30:32,987808,15.12793375,0.0001744,97.4557,221.9589,164.7079,195.4205,0,999,3047,0.001237,0.00021696,0,4329170,0 UMBRA-08,1 58292U 23174AN  24148.47954847  .00021696  00000-0  12370-2 0  9999,2 58292  97.4557 221.9589 0001744 164.7079 195.4205 15.12793375 30474,2023-174AN,58292,6905.823,95.188,528.892,526.483,1
GENERATED VIA SPACETRACK.ORG API,18 SPCS,58292,UMBRA-08,PAYLOAD,U,23174AN,2024-05-27 17:51:32,520960,15.1280437,0.0001816,97.4559,222.2173,164.3291,195.7996,0,999,3051,0.0010987,0.00019263,0,4329288,0 UMBRA-08,1 58292U 23174AN  24148.74412640  .00019263  00000-0  10987-2 0  9998,2 58292  97.4559 222.2173 0001816 164.3291 195.7996 15.12804370 30514,2023-174AN,58292,6905.789,95.187,528.908,526.400,1
GENERATED VIA SPACETRACK.ORG API,18 SPCS,58292,UMBRA-08,PAYLOAD,U,23174AN,2024-05-28 11:19:15,432096,15.12836582,0.0001793,97.4557,222.9287,161.4787,198.6509,0,999,3062,0.0012222,0.00021461,0,4329834,0 UMBRA-08,1 58292U 23174AN  24149.47170639  .00021461  00000-0  12222-2 0  9995,2 58292  97.4557 222.9287 0001793 161.4787 198.6509 15.12836582 30621,2023-174AN,58292,6905.691,95.185,528.795,526.318,1
GENERATED VIA SPACETRACK.ORG API,18 SPCS,58292,UMBRA-08,PAYLOAD,U,23174AN,2024-05-28 11:19:15,432096,15.12836582,0.0001793,97.4557,222.9287,161.4787,198.6509,0,999,3062,0.0012222,0.00021461,0,4329851,0 UMBRA-08,1 58292U 23174AN  24149.47170639  .00021461  00000-0  12222-2 0  9995,2 58292  97.4557 222.9287 0001793 161.4787 198.6509 15.12836582 30621,2023-174AN,58292,6905.691,95.185,528.795,526.318,1
GENERATED VIA SPACETRACK.ORG API,18 SPCS,58292,UMBRA-08,PAYLOAD,U,23174AN,2024-05-28 22:25:58,512864,15.12852532,0.0001764,97.4558,223.3818,159.5861,200.5441,0,999,3069,0.001087,0.00019082,0,4330098,0 UMBRA-08,1 58292U 23174AN  24149.93470501  .00019082  00000-0  10870-2 0  9990,2 58292  97.4558 223.3818 0001764 159.5861 200.5441 15.12852532 30694,2023-174AN,58292,6905.643,95.184,528.726,526.290,1
GENERATED VIA SPACETRACK.ORG API,18 SPCS,58292,UMBRA-08,PAYLOAD,U,23174AN,2024-05-29 04:46:57,174240,15.12862307,0.0001768,97.4557,223.6406,159.6271,200.5031,0,999,3073,0.00097672,0.0001714,0,4330703,0 UMBRA-08,1 58292U 23174AN  24150.19927285  .00017140  00000-0  97672-3 0  9995,2 58292  97.4557 223.6406 0001768 159.6271 200.5031 15.12862307 30730,2023-174AN,58292,6905.613,95.184,528.699,526.257,1
GENERATED VIA SPACETRACK.ORG API,18 SPCS,58292,UMBRA-08,PAYLOAD,U,23174AN,2024-05-29 17:28:54,83136,15.12884346,0.0001789,97.4557,224.1578,158.3342,201.7965,0,999,3081,0.0011251,0.00019773,0,4331000,0 UMBRA-08,1 58292U 23174AN  24150.72840374  .00019773  00000-0  11251-2 0  9999,2 58292  97.4557 224.1578 0001789 158.3342 201.7965 15.12884346 30819,2023-174AN,58292,6905.546,95.182,528.646,526.176,1
GENERATED VIA SPACETRACK.ORG API,18 SPCS,58292,UMBRA-08,PAYLOAD,U,23174AN,2024-05-29 17:28:54,78816,15.12884286,0.0001788,97.4557,224.1578,158.3183,201.8124,0,999,3081,0.0011096,0.00019499,0,4331016,0 UMBRA-08,1 58292U 23174AN  24150.72840369  .00019499  00000-0  11096-2 0  9995,2 58292  97.4557 224.1578 0001788 158.3183 201.8124 15.12884286 30812,2023-174AN,58292,6905.546,95.182,528.646,526.176,1
GENERATED VIA SPACETRACK.ORG API,18 SPCS,58292,UMBRA-08,PAYLOAD,U,23174AN,2024-05-30 04:35:35,814336,15.12902939,0.000177,97.4557,224.6105,157.2208,202.9102,0,999,3088,0.0011207,0.00019705,0,4331646,0 UMBRA-08,1 58292U 23174AN  24151.19138674  .00019705  00000-0  11207-2 0  9990,2 58292  97.4557 224.6105 0001770 157.2208 202.9102 15.12902939 30881,2023-174AN,58292,6905.489,95.181,528.577,526.132,1
GENERATED VIA SPACETRACK.ORG API,18 SPCS,58292,UMBRA-08,PAYLOAD,U,23174AN,2024-05-30 18:52:45,980256,15.12928348,0.0001739,97.4557,225.1925,158.4761,201.6544,0,999,3097,0.001289,0.00022699,0,4331881,0 UMBRA-08,1 58292U 23174AN  24151.78664329  .00022699  00000-0  12890-2 0  9991,2 58292  97.4557 225.1925 0001739 158.4761 201.6544 15.12928348 30977,2023-174AN,58292,6905.412,95.180,528.478,526.076,1
GENERATED VIA SPACETRACK.ORG API,18 SPCS,58292,UMBRA-08,PAYLOAD,U,23174AN,2024-05-30 18:52:45,969888,15.12937885,0.0001722,97.4556,225.1925,158.3715,201.7589,0,999,3097,0.0017641,0.00031134,0,4331912,0 UMBRA-08,1 58292U 23174AN  24151.78664317  .00031134  00000-0  17641-2 0  9991,2 58292  97.4556 225.1925 0001722 158.3715 201.7589 15.12937885 30972,2023-174AN,58292,6905.383,95.179,528.437,526.059,1
GENERATED VIA SPACETRACK.ORG API,18 SPCS,58292,UMBRA-08,PAYLOAD,U,23174AN,2024-05-31 04:24:12,250368,15.12948699,0.0001664,97.4556,225.5807,157.6257,202.5047,0,999,3103,0.0014691,0.00025906,0,4332540,0 UMBRA-08,1 58292U 23174AN  24152.18347512  .00025906  00000-0  14691-2 0  9993,2 58292  97.4556 225.5807 0001664 157.6257 202.5047 15.12948699 31034,2023-174AN,58292,6905.350,95.178,528.364,526.066,1
GENERATED VIA SPACETRACK.ORG API,18 SPCS,58292,UMBRA-08,PAYLOAD,U,23174AN,2024-05-31 18:41:20,877504,15.12970707,0.0001712,97.4557,226.1631,158.4728,201.6575,0,999,3112,0.0012664,0.00022325,0,4333223,0 UMBRA-08,1 58292U 23174AN  24152.77871386  .00022325  00000-0  12664-2 0  9999,2 58292  97.4557 226.1631 0001712 158.4728 201.6575 15.12970707 31124,2023-174AN,58292,6905.283,95.177,528.330,525.966,1
GENERATED VIA SPACETRACK.ORG API,18 SPCS,58292,UMBRA-08,PAYLOAD,U,23174AN,2024-06-01 04:12:46,86624,15.1298839,0.000167,97.4557,226.5511,160.5518,199.5777,0,999,3118,0.0012009,0.00021175,0,4333213,0 UMBRA-08,1 58292U 23174AN  24153.17553341  .00021175  00000-0  12009-2 0  9997,2 58292  97.4557 226.5511 0001670 160.5518 199.5777 15.12988390 31181,2023-174AN,58292,6905.229,95.176,528.248,525.941,1
GENERATED VIA SPACETRACK.ORG API,18 SPCS,58292,UMBRA-08,PAYLOAD,U,23174AN,2024-06-01 05:48:00,252576,15.12991335,0.0001673,97.4557,226.6157,161.1159,199.0134,0,999,3119,0.0011991,0.00021144,0,4333553,0 UMBRA-08,1 58292U 23174AN  24153.24166959  .00021144  00000-0  11991-2 0  9995,2 58292  97.4557 226.6157 0001673 161.1159 199.0134 15.12991335 31195,2023-174AN,58292,6905.220,95.176,528.241,525.930,1
GENERATED VIA SPACETRACK.ORG API,18 SPCS,58292,UMBRA-08,PAYLOAD,U,23174AN,2024-06-02 04:01:17,495904,15.13034803,0.0001691,97.456,227.5211,162.5214,197.6076,0,999,3133,0.0014959,0.00026445,0,4334418,0 UMBRA-08,1 58292U 23174AN  24154.16756361  .00026445  00000-0  14959-2 0  9995,2 58292  97.4560 227.5211 0001691 162.5214 197.6076 15.13034803 31331,2023-174AN,58292,6905.088,95.173,528.121,525.786,1
GENERATED VIA SPACETRACK.ORG API,18 SPCS,58292,UMBRA-08,PAYLOAD,U,23174AN,2024-06-02 15:07:55,303680,15.13052357,0.0001744,97.4562,227.9737,162.1634,197.9659,0,999,3140,0.0012493,0.00022073,0,4334588,0 UMBRA-08,1 58292U 23174AN  24154.63050120  .00022073  00000-0  12493-2 0  9991,2 58292  97.4562 227.9737 0001744 162.1634 197.9659 15.13052357 31403,2023-174AN,58292,6905.035,95.172,528.104,525.696,1
GENERATED VIA SPACETRACK.ORG API,18 SPCS,58292,UMBRA-08,PAYLOAD,U,23174AN,2024-06-02 15:07:55,303680,15.13052357,0.0001744,97.4562,227.9737,162.1634,197.9659,0,999,3140,0.0012493,0.00022073,0,4334623,0 UMBRA-08,1 58292U 23174AN  24154.63050120  .00022073  00000-0  12493-2 0  9991,2 58292  97.4562 227.9737 0001744 162.1634 197.9659 15.13052357 31403,2023-174AN,58292,6905.035,95.172,528.104,525.696,1
GENERATED VIA SPACETRACK.ORG API,18 SPCS,58292,UMBRA-08,PAYLOAD,U,23174AN,2024-06-03 03:49:46,418592,15.130797,0.0001742,97.4564,228.4913,160.6611,199.4686,0,999,3148,0.0015394,0.00027253,0,4335298,0 UMBRA-08,1 58292U 23174AN  24155.15956503  .00027253  00000-0  15394-2 0  9997,2 58292  97.4564 228.4913 0001742 160.6611 199.4686 15.13079700 31489,2023-174AN,58292,6904.952,95.170,528.019,525.614,1
